[Satellite]
VERSION=1.1
NAME=EUROBIRD 4A
NICKNAME=EUROBIRD 4A
TLE1=1 26487U 00052A   11059.11409245  .00000005  00000-0  10000-3 0  5801
TLE2=2 26487   0.0646 350.8722 0006063  15.3253 196.4001  1.00270789 38417
